CUTE-1 (CO-55)          
1 27844U 03031E   26169.93387239  .00000210  00000+0  10966-3 0  9997
2 27844  98.6735 178.4708 0009656 172.9759 187.1557 14.24336606191927
CUBESAT XI-IV (CO-57)   
1 27848U 03031J   26169.92320627  .00000172  00000+0  94753-4 0  9992
2 27848  98.6765 178.1715 0009140 191.7752 168.3214 14.23621597191622
CUBESAT XI-V            
1 28895U 05043F   26169.96537174  .00001071  00000+0  17623-3 0  9990
2 28895  98.2987 325.6244 0013771 194.9475 165.1327 14.72635479102018
CUTE-1.7+APD II (CO-65) 
1 32785U 08021C   26169.90603696  .00004403  00000+0  27890-3 0  9998
2 32785  97.8275 151.3603 0009576  33.3397 326.8433 15.09464113985453
CANX-2                  
1 32790U 08021H   26168.88637359  .00003690  00000+0  25995-3 0  9994
2 32790  97.8640 148.6774 0011418  48.7586 311.4622 15.05623552984911
SEEDS II (CO-66)        
1 32791U 08021J   26169.44123302  .00014056  00000+0  44622-3 0  9992
2 32791  97.7517 167.3987 0000890 357.5135   2.6101 15.32786684987483
SWISSCUBE               
1 35932U 09051B   26169.74226071  .00000745  00000+0  15677-3 0  9994
2 35932  98.4034  77.6577 0006063 197.6452 162.4539 14.62484142889382
BEESAT-1                
1 35933U 09051C   26169.68405163  .00000636  00000+0  13739-3 0  9995
2 35933  98.3962  77.2309 0004309 211.2919 148.8026 14.61722602889400
ITUPSAT1                
1 35935U 09051E   26169.19666220  .00000591  00000+0  13197-3 0  9994
2 35935  98.4047  75.9267 0006285 230.1057 129.9590 14.60442029888881
TISAT 1                 
1 36799U 10035E   26169.29299463  .00015546  00000+0  50955-3 0  9998
2 36799  98.0713 115.9399 0001545 166.4985 193.6296 15.31742601867877
AEROCUBE 4.5A           
1 38767U 12048K   26169.91544882  .00445345  89684-4  96140-3 0  9998
2 38767  64.6226  20.5437 0019345 228.9125 131.0369 15.97795039372933
STRAND-1                
1 39090U 13009E   26169.72693089  .00000194  00000+0  79602-4 0  9993
2 39090  98.3923 349.9234 0007803 220.1282 139.9329 14.37163972697287
BRITE-AUSTRIA           
1 39091U 13009F   26169.74047145  .00000124  00000+0  56763-4 0  9998
2 39091  98.3995 349.1376 0009202 231.3134 128.7230 14.36542637697275
NEE-01 PEGASO           
1 39151U 13018B   26169.87338501  .00002403  00000+0  23283-3 0  9990
2 39151  98.1227 314.0788 0013272 153.7980 206.3913 14.93666854710957
POPACS 2                
1 39269U 13055E   26169.65274734  .00012134  00000+0  20498-3 0  9991
2 39269  80.9906 142.5146 0416783 189.0650 170.2883 14.91243644663433
POPACS 3                
1 39270U 13055F   26169.90599162  .00007750  00000+0  18200-3 0  9992
2 39270  81.0000 227.3242 0552001  64.7663 300.9692 14.56148407638803
ZACUBE-1 (TSHEPISOSAT)  
1 39417U 13066B   26169.94035917  .00002284  00000+0  17989-3 0  9994
2 39417  97.8075 132.2864 0041028 241.6550 118.0533 15.01196295680998
WNISAT-1                
1 39423U 13066H   26169.92675310  .00000723  00000+0  14047-3 0  9994
2 39423  97.7204 318.9595 0162063 226.0739 132.6992 14.58064839666984
TRITON-1                
1 39427U 13066M   26169.98390861  .00001810  00000+0  22154-3 0  9995
2 39427  97.8249  79.7505 0088569 227.9607 131.4045 14.81712155674356
GOMX-1                  
1 39430U 13066Q   26169.95638690  .00001676  00000+0  25582-3 0  9999
2 39430  97.6474  10.3072 0130146  71.8990 289.6342 14.69466703670171
CUBEBUG-2 (LO-74)       
1 39440U 13066AA  26169.80481596  .00003935  00000+0  36475-3 0  9998
2 39440  97.8910 118.7896 0058293  23.8630 336.5272 14.93773469677231
NEE-02 KRYSAOR          
1 39441U 13066AB  26169.75727766  .00001818  00000+0  20289-3 0  9999
2 39441  97.8893 108.9606 0067596  65.1877 295.6349 14.86623653676432
FUNCUBE-1 (AO-73)       
1 39444U 13066AE  26169.91263864  .00004732  00000+0  29512-3 0  9990
2 39444  97.8280 141.3944 0035784 194.7997 165.2187 15.09506452679929
UWE-3                   
1 39446U 13066AG  26169.61929383  .00003597  00000+0  31072-3 0  9996
2 39446  97.8699 125.7026 0047372 316.3669  43.3811 14.97034048677792
BRITE-CA1 (TORONTO)     
1 40020U 14033L   26169.94023028  .00000569  00000+0  93340-4 0  9991
2 40020  97.9742 298.8358 0077213 271.2984  87.9379 14.72678821642474
DUCHIFAT-1              
1 40021U 14033M   26169.68438844  .00088318  00000+0  89916-3 0  9990
2 40021  98.0447 229.0553 0002814 113.8680 246.2872 15.64848252655988
NANOSATC-BR1            
1 40024U 14033Q   26169.83886973  .00012819  00000+0  42393-3 0  9991
2 40024  98.0716 202.3732 0004556 158.4480 201.6952 15.31498913654231
QB50P1                  
1 40025U 14033R   26169.92953077  .00006220  00000+0  30693-3 0  9991
2 40025  98.0963 181.1977 0008007 208.7804 151.2987 15.18280964653298
QB50P2                  
1 40032U 14033Y   26169.94923947  .00005820  00000+0  31389-3 0  9992
2 40032  98.0753 166.9392 0008169 158.0702 202.0879 15.15176502652932
PERSEUS-M2              
1 40037U 14033AD  26169.93655700  .00001378  00000+0  12979-3 0  9993
2 40037  97.9965 120.5130 0010509 297.6941  62.3213 14.95513400651041
